[{"OBJECT_NAME":"IRIDIUM 124","OBJECT_ID":"2017-039H","EPOCH":"2026-04-04T03:30:07.395552","MEAN_MOTION":14.432951,"ECCENTRICITY":0.00021409,"INCLINATION":86.4489,"RA_OF_ASC_NODE":321.3394,"ARG_OF_PERICENTER":88.5604,"MEAN_ANOMALY":271.5842,"EPHEMERIS_TYPE":0,"CLASSIFICATION_TYPE":"U","NORAD_CAT_ID":42810,"ELEMENT_SET_NO":999,"REV_AT_EPOCH":46443,"BSTAR":0.00016280918,"MEAN_MOTION_DOT":5.68e-6,"MEAN_MOTION_DDOT":0},{"OBJECT_NAME":"IRIDIUM 128","OBJECT_ID":"2017-039J","EPOCH":"2026-04-04T06:06:30.676608","MEAN_MOTION":14.34219082,"ECCENTRICITY":0.00024179,"INCLINATION":86.3956,"RA_OF_ASC_NODE":56.0472,"ARG_OF_PERICENTER":89.5257,"MEAN_ANOMALY":270.6216,"EPHEMERIS_TYPE":0,"CLASSIFICATION_TYPE":"U","NORAD_CAT_ID":42811,"ELEMENT_SET_NO":999,"REV_AT_EPOCH":45938,"BSTAR":0.00012868968,"MEAN_MOTION_DOT":3.8e-6,"MEAN_MOTION_DDOT":0},{"OBJECT_NAME":"IRIDIUM 121","OBJECT_ID":"2017-039K","EPOCH":"2026-04-03T20:44:26.765088","MEAN_MOTION":14.34216491,"ECCENTRICITY":0.00022201,"INCLINATION":86.4012,"RA_OF_ASC_NODE":24.7211,"ARG_OF_PERICENTER":84.4251,"MEAN_ANOMALY":275.7198,"EPHEMERIS_TYPE":0,"CLASSIFICATION_TYPE":"U","NORAD_CAT_ID":42812,"ELEMENT_SET_NO":999,"REV_AT_EPOCH":45917,"BSTAR":3.810132e-6,"MEAN_MOTION_DOT":3.0e-7,"MEAN_MOTION_DDOT":0},{"OBJECT_NAME":"IRIDIUM 133","OBJECT_ID":"2017-061A","EPOCH":"2026-04-04T06:52:10.677216","MEAN_MOTION":14.34218652,"ECCENTRICITY":0.00022414,"INCLINATION":86.3957,"RA_OF_ASC_NODE":56.1499,"ARG_OF_PERICENTER":88.0691,"MEAN_ANOMALY":272.0762,"EPHEMERIS_TYPE":0,"CLASSIFICATION_TYPE":"U","NORAD_CAT_ID":42955,"ELEMENT_SET_NO":999,"REV_AT_EPOCH":44418,"BSTAR":7.2848924e-5,"MEAN_MOTION_DOT":2.24e-6,"MEAN_MOTION_DDOT":0},{"OBJECT_NAME":"IRIDIUM 100","OBJECT_ID":"2017-061B","EPOCH":"2026-04-04T06:43:02.700768","MEAN_MOTION":14.34217458,"ECCENTRICITY":0.00020848,"INCLINATION":86.395,"RA_OF_ASC_NODE":56.0731,"ARG_OF_PERICENTER":88.8807,"MEAN_ANOMALY":271.2627,"EPHEMERIS_TYPE":0,"CLASSIFICATION_TYPE":"U","NORAD_CAT_ID":42956,"ELEMENT_SET_NO":999,"REV_AT_EPOCH":44418,"BSTAR":-6.275832e-6,"MEAN_MOTION_DOT":2.0e-8,"MEAN_MOTION_DDOT":0},{"OBJECT_NAME":"IRIDIUM 122","OBJECT_ID":"2017-061C","EPOCH":"2026-04-04T05:57:22.625856","MEAN_MOTION":14.34217475,"ECCENTRICITY":0.00021689,"INCLINATION":86.3958,"RA_OF_ASC_NODE":56.0861,"ARG_OF_PERICENTER":88.7283,"MEAN_ANOMALY":271.4162,"EPHEMERIS_TYPE":0,"CLASSIFICATION_TYPE":"U","NORAD_CAT_ID":42957,"ELEMENT_SET_NO":999,"REV_AT_EPOCH":44418,"BSTAR":6.6631269e-5,"MEAN_MOTION_DOT":2.06e-6,"MEAN_MOTION_DDOT":0},{"OBJECT_NAME":"IRIDIUM 129","OBJECT_ID":"2017-061D","EPOCH":"2026-04-03T22:11:34.609632","MEAN_MOTION":14.34218621,"ECCENTRICITY":0.00020839,"INCLINATION":86.3957,"RA_OF_ASC_NODE":56.2877,"ARG_OF_PERICENTER":79.1801,"MEAN_ANOMALY":280.963,"EPHEMERIS_TYPE":0,"CLASSIFICATION_TYPE":"U","NORAD_CAT_ID":42958,"ELEMENT_SET_NO":999,"REV_AT_EPOCH":44415,"BSTAR":0.00011833536,"MEAN_MOTION_DOT":3.51e-6,"MEAN_MOTION_DDOT":0},{"OBJECT_NAME":"IRIDIUM 119","OBJECT_ID":"2017-061E","EPOCH":"2026-04-03T23:06:22.689504","MEAN_MOTION":14.34217331,"ECCENTRICITY":0.00019243,"INCLINATION":86.3954,"RA_OF_ASC_NODE":56.2676,"ARG_OF_PERICENTER":86.3542,"MEAN_ANOMALY":273.7874,"EPHEMERIS_TYPE":0,"CLASSIFICATION_TYPE":"U","NORAD_CAT_ID":42959,"ELEMENT_SET_NO":999,"REV_AT_EPOCH":44417,"BSTAR":-8.649715e-6,"MEAN_MOTION_DOT":-4.0e-8,"MEAN_MOTION_DDOT":0},{"OBJECT_NAME":"IRIDIUM 107","OBJECT_ID":"2017-061F","EPOCH":"2026-04-04T06:15:39.552480","MEAN_MOTION":14.34213329,"ECCENTRICITY":0.00021804,"INCLINATION":86.3957,"RA_OF_ASC_NODE":56.1631,"ARG_OF_PERICENTER":95.0266,"MEAN_ANOMALY":265.1178,"EPHEMERIS_TYPE":0,"CLASSIFICATION_TYPE":"U","NORAD_CAT_ID":42960,"ELEMENT_SET_NO":999,"REV_AT_EPOCH":44422,"BSTAR":4.5229431e-5,"MEAN_MOTION_DOT":1.46e-6,"MEAN_MOTION_DDOT":0},{"OBJECT_NAME":"IRIDIUM 132","OBJECT_ID":"2017-061G","EPOCH":"2026-04-04T06:24:46.859328","MEAN_MOTION":14.34216485,"ECCENTRICITY":0.00021303,"INCLINATION":86.3953,"RA_OF_ASC_NODE":56.141,"ARG_OF_PERICENTER":88.8315,"MEAN_ANOMALY":271.3125,"EPHEMERIS_TYPE":0,"CLASSIFICATION_TYPE":"U","NORAD_CAT_ID":42961,"ELEMENT_SET_NO":999,"REV_AT_EPOCH":44422,"BSTAR":-4.1781336e-5,"MEAN_MOTION_DOT":-9.7e-7,"MEAN_MOTION_DDOT":0},{"OBJECT_NAME":"IRIDIUM 136","OBJECT_ID":"2017-061H","EPOCH":"2026-04-03T22:48:06.630336","MEAN_MOTION":14.34219152,"ECCENTRICITY":0.00021207,"INCLINATION":86.3956,"RA_OF_ASC_NODE":56.2797,"ARG_OF_PERICENTER":88.7154,"MEAN_ANOMALY":271.4285,"EPHEMERIS_TYPE":0,"CLASSIFICATION_TYPE":"U","NORAD_CAT_ID":42962,"ELEMENT_SET_NO":999,"REV_AT_EPOCH":44419,"BSTAR":0.00012998656,"MEAN_MOTION_DOT":3.84e-6,"MEAN_MOTION_DDOT":0},{"OBJECT_NAME":"IRIDIUM 139","OBJECT_ID":"2017-061J","EPOCH":"2026-04-03T22:57:13.990752","MEAN_MOTION":14.34221974,"ECCENTRICITY":0.00022612,"INCLINATION":86.3958,"RA_OF_ASC_NODE":56.3377,"ARG_OF_PERICENTER":89.5707,"MEAN_ANOMALY":270.5748,"EPHEMERIS_TYPE":0,"CLASSIFICATION_TYPE":"U","NORAD_CAT_ID":42963,"ELEMENT_SET_NO":999,"REV_AT_EPOCH":44420,"BSTAR":0.00014046173,"MEAN_MOTION_DOT":4.13e-6,"MEAN_MOTION_DDOT":0},{"OBJECT_NAME":"IRIDIUM 125","OBJECT_ID":"2017-061K","EPOCH":"2026-04-03T22:38:58.649568","MEAN_MOTION":14.34216667,"ECCENTRICITY":0.00016134,"INCLINATION":86.3958,"RA_OF_ASC_NODE":56.4034,"ARG_OF_PERICENTER":96.6748,"MEAN_ANOMALY":263.4632,"EPHEMERIS_TYPE":0,"CLASSIFICATION_TYPE":"U","NORAD_CAT_ID":42964,"ELEMENT_SET_NO":999,"REV_AT_EPOCH":44421,"BSTAR":-3.7549956e-5,"MEAN_MOTION_DOT":-8.5e-7,"MEAN_MOTION_DDOT":0},{"OBJECT_NAME":"IRIDIUM 135","OBJECT_ID":"2017-083A","EPOCH":"2026-04-04T04:43:35.145984","MEAN_MOTION":14.34218708,"ECCENTRICITY":0.00022136,"INCLINATION":86.4017,"RA_OF_ASC_NODE":352.9463,"ARG_OF_PERICENTER":85.3276,"MEAN_ANOMALY":274.8173,"EPHEMERIS_TYPE":0,"CLASSIFICATION_TYPE":"U","NORAD_CAT_ID":43070,"ELEMENT_SET_NO":999,"REV_AT_EPOCH":43354,"BSTAR":7.6027498e-5,"MEAN_MOTION_DOT":2.33e-6,"MEAN_MOTION_DDOT":0},{"OBJECT_NAME":"IRIDIUM 138","OBJECT_ID":"2017-083B","EPOCH":"2026-04-04T05:20:07.058688","MEAN_MOTION":14.34218616,"ECCENTRICITY":0.00018078,"INCLINATION":86.4033,"RA_OF_ASC_NODE":352.6204,"ARG_OF_PERICENTER":81.9868,"MEAN_ANOMALY":278.1533,"EPHEMERIS_TYPE":0,"CLASSIFICATION_TYPE":"U","NORAD_CAT_ID":43071,"ELEMENT_SET_NO":999,"REV_AT_EPOCH":43353,"BSTAR":7.1012553e-5,"MEAN_MOTION_DOT":2.19e-6,"MEAN_MOTION_DDOT":0},{"OBJECT_NAME":"IRIDIUM 116","OBJECT_ID":"2017-083C","EPOCH":"2026-04-04T06:14:55.192128","MEAN_MOTION":14.34218591,"ECCENTRICITY":0.00024078,"INCLINATION":86.4016,"RA_OF_ASC_NODE":352.9069,"ARG_OF_PERICENTER":87.5423,"MEAN_ANOMALY":272.6049,"EPHEMERIS_TYPE":0,"CLASSIFICATION_TYPE":"U","NORAD_CAT_ID":43072,"ELEMENT_SET_NO":999,"REV_AT_EPOCH":43357,"BSTAR":0.0001453511,"MEAN_MOTION_DOT":4.27e-6,"MEAN_MOTION_DDOT":0},{"OBJECT_NAME":"IRIDIUM 130","OBJECT_ID":"2017-083D","EPOCH":"2026-04-04T05:29:15.168192","MEAN_MOTION":14.34218248,"ECCENTRICITY":0.00022693,"INCLINATION":86.4025,"RA_OF_ASC_NODE":353.188,"ARG_OF_PERICENTER":91.7756,"MEAN_ANOMALY":268.3699,"EPHEMERIS_TYPE":0,"CLASSIFICATION_TYPE":"U","NORAD_CAT_ID":43073,"ELEMENT_SET_NO":999,"REV_AT_EPOCH":43351,"BSTAR":5.5037674e-5,"MEAN_MOTION_DOT":1.74e-6,"MEAN_MOTION_DDOT":0}]
