IRIDIUM 124             
1 42810U 17039H   26094.14591893  .00000568  00000+0  16281-3 0  9995
2 42810  86.4489 321.3394 0002140  88.5604 271.5842 14.43295100464438
IRIDIUM 128             
1 42811U 17039J   26094.25452172  .00000380  00000+0  12869-3 0  9994
2 42811  86.3956  56.0472 0002417  89.5257 270.6216 14.34219082459386
IRIDIUM 121             
1 42812U 17039K   26093.86419867  .00000030  00000+0  38101-5 0  9996
2 42812  86.4012  24.7211 0002220  84.4251 275.7198 14.34216491459177
IRIDIUM 133             
1 42955U 17061A   26094.28623469  .00000224  00000+0  72849-4 0  9992
2 42955  86.3957  56.1499 0002241  88.0691 272.0762 14.34218652444183
IRIDIUM 100             
1 42956U 17061B   26094.27989237  .00000002  00000+0 -62758-5 0  9994
2 42956  86.3950  56.0731 0002084  88.8807 271.2627 14.34217458444181
IRIDIUM 122             
1 42957U 17061C   26094.24817854  .00000206  00000+0  66631-4 0  9995
2 42957  86.3958  56.0861 0002168  88.7283 271.4162 14.34217475444189
IRIDIUM 129             
1 42958U 17061D   26093.92470613  .00000351  00000+0  11834-3 0  9993
2 42958  86.3957  56.2877 0002083  79.1801 280.9630 14.34218621444150
IRIDIUM 119             
1 42959U 17061E   26093.96276261 -.00000004  00000+0 -86497-5 0  9997
2 42959  86.3954  56.2676 0001924  86.3542 273.7874 14.34217331444179
IRIDIUM 107             
1 42960U 17061F   26094.26087445  .00000146  00000+0  45229-4 0  9999
2 42960  86.3957  56.1631 0002180  95.0266 265.1178 14.34213329444220
IRIDIUM 132             
1 42961U 17061G   26094.26720902 -.00000097  00000+0 -41781-4 0  9998
2 42961  86.3953  56.1410 0002130  88.8315 271.3125 14.34216485444229
IRIDIUM 136             
1 42962U 17061H   26093.95007674  .00000384  00000+0  12999-3 0  9993
2 42962  86.3956  56.2797 0002120  88.7154 271.4285 14.34219152444199
IRIDIUM 139             
1 42963U 17061J   26093.95641193  .00000413  00000+0  14046-3 0  9992
2 42963  86.3958  56.3377 0002261  89.5707 270.5748 14.34221974444207
IRIDIUM 125             
1 42964U 17061K   26093.94373437 -.00000085  00000+0 -37550-4 0  9998
2 42964  86.3958  56.4034 0001613  96.6748 263.4632 14.34216667444210
IRIDIUM 135             
1 43070U 17083A   26094.19693456  .00000233  00000+0  76027-4 0  9990
2 43070  86.4017 352.9463 0002213  85.3276 274.8173 14.34218708433542
IRIDIUM 138             
1 43071U 17083B   26094.22230392  .00000219  00000+0  71013-4 0  9995
2 43071  86.4033 352.6204 0001807  81.9868 278.1533 14.34218616433532
IRIDIUM 116             
1 43072U 17083C   26094.26036102  .00000427  00000+0  14535-3 0  9999
2 43072  86.4016 352.9069 0002407  87.5423 272.6049 14.34218591433579
IRIDIUM 130             
1 43073U 17083D   26094.22864778  .00000174  00000+0  55038-4 0  9997
2 43073  86.4025 353.1880 0002269  91.7756 268.3699 14.34218248433512
